{"type": "FeatureCollection", "features": [ {"type": "Feature", "properties": {"norad_id": 39122, "name": "EUTELSAT 117 WEST A", "group": "eutelsat", "lat": 0.030906010864972397, "lon": 47.28031407412248, "alt_km": 35797.55617368481, "timestamp": "2025-12-09T05:43:20.399335+00:00", "meta": {"OBJECT_NAME": "EUTELSAT 117 WEST A", "OBJECT_ID": "2013-012A", "EPOCH": "2025-12-08T14:45:38.097792", "MEAN_MOTION": 1.00270477, "ECCENTRICITY": 0.0003102, "INCLINATION": 0.0132, "RA_OF_ASC_NODE": 342.409, "ARG_OF_PERICENTER": 276.8987, "MEAN_ANOMALY": 282.9194, "EPHEMERIS_TYPE": 0, "CLASSIFICATION_TYPE": "U", "NORAD_CAT_ID": 39122, "ELEMENT_SET_NO": 999, "REV_AT_EPOCH": 4652, "BSTAR": 0, "MEAN_MOTION_DOT": -1.1e-07, "MEAN_MOTION_DDOT": 0}, "tle": {"line1": "1 39122U 13012A   25342.61502428 -.00000011  00000+0  00000+0 0  9999", "line2": "2 39122   0.0132 342.4090 0003102 276.8987 282.9194  1.00270477 46520"}}, "geometry": {"type": "Point", "coordinates": [47.28031407412248, 0.030906010864972397]}}, {"type": "Feature", "properties": {"norad_id": 39163, "name": "EUTELSAT 7B", "group": "eutelsat", "lat": 0.02490173237781806, "lon": 171.01857856626282, "alt_km": 35801.40174535748, "timestamp": "2025-12-09T05:43:20.399348+00:00", "meta": {"OBJECT_NAME": "EUTELSAT 7B", "OBJECT_ID": "2013-022A", "EPOCH": "2025-12-08T18:46:23.640384", "MEAN_MOTION": 1.00271368, "ECCENTRICITY": 0.0004547, "INCLINATION": 0.0705, "RA_OF_ASC_NODE": 13.1138, "ARG_OF_PERICENTER": 300.896, "MEAN_ANOMALY": 52.3582, "EPHEMERIS_TYPE": 0, "CLASSIFICATION_TYPE": "U", "NORAD_CAT_ID": 39163, "ELEMENT_SET_NO": 999, "REV_AT_EPOCH": 4604, "BSTAR": 0, "MEAN_MOTION_DOT": 5e-07, "MEAN_MOTION_DDOT": 0}, "tle": {"line1": "1 39163U 13022A   25342.78221806  .00000050  00000+0  00000+0 0  9993", "line2": "2 39163   0.0705  13.1138 0004547 300.8960  52.3582  1.00271368 46046"}}, "geometry": {"type": "Point", "coordinates": [171.01857856626282, 0.02490173237781806]}}, {"type": "Feature", "properties": {"norad_id": 39612, "name": "EXPRESS-AT1", "group": "eutelsat", "lat": -0.03447496693069732, "lon": -139.93300107435914, "alt_km": 35784.136653373644, "timestamp": "2025-12-09T05:43:20.399360+00:00", "meta": {"OBJECT_NAME": "EXPRESS-AT1", "OBJECT_ID": "2014-010A", "EPOCH": "2025-12-08T20:48:38.729952", "MEAN_MOTION": 1.00269923, "ECCENTRICITY": 6.44e-05, "INCLINATION": 0.0183, "RA_OF_ASC_NODE": 306.8649, "ARG_OF_PERICENTER": 247.3139, "MEAN_ANOMALY": 251.8515, "EPHEMERIS_TYPE": 0, "CLASSIFICATION_TYPE": "U", "NORAD_CAT_ID": 39612, "ELEMENT_SET_NO": 999, "REV_AT_EPOCH": 4291, "BSTAR": 0, "MEAN_MOTION_DOT": 8.1e-07, "MEAN_MOTION_DDOT": 0}, "tle": {"line1": "1 39612U 14010A   25342.86711493  .00000081  00000+0  00000+0 0  9999", "line2": "2 39612   0.0183 306.8649 0000644 247.3139 251.8515  1.00269923 42919"}}, "geometry": {"type": "Point", "coordinates": [-139.93300107435914, -0.03447496693069732]}}, {"type": "Feature", "properties": {"norad_id": 39613, "name": "EXPRESS-AT2", "group": "eutelsat", "lat": -0.011169982662642288, "lon": -56.065730197030625, "alt_km": 35779.69616474348, "timestamp": "2025-12-09T05:43:20.399372+00:00", "meta": {"OBJECT_NAME": "EXPRESS-AT2", "OBJECT_ID": "2014-010B", "EPOCH": "2025-12-08T21:07:02.668800", "MEAN_MOTION": 1.00272548, "ECCENTRICITY": 0.0001569, "INCLINATION": 0.0177, "RA_OF_ASC_NODE": 310.7405, "ARG_OF_PERICENTER": 332.8818, "MEAN_ANOMALY": 250.8812, "EPHEMERIS_TYPE": 0, "CLASSIFICATION_TYPE": "U", "NORAD_CAT_ID": 39613, "ELEMENT_SET_NO": 999, "REV_AT_EPOCH": 4259, "BSTAR": 0, "MEAN_MOTION_DOT": -2.79e-06, "MEAN_MOTION_DDOT": 0}, "tle": {"line1": "1 39613U 14010B   25342.87989200 -.00000279  00000+0  00000+0 0  9994", "line2": "2 39613   0.0177 310.7405 0001569 332.8818 250.8812  1.00272548 42598"}}, "geometry": {"type": "Point", "coordinates": [-56.065730197030625, -0.011169982662642288]}}, {"type": "Feature", "properties": {"norad_id": 39773, "name": "EUTELSAT 3B", "group": "eutelsat", "lat": -0.00957108238690896, "lon": 167.1216874355842, "alt_km": 35776.46583804049, "timestamp": "2025-12-09T05:43:20.399384+00:00", "meta": {"OBJECT_NAME": "EUTELSAT 3B", "OBJECT_ID": "2014-030A", "EPOCH": "2025-12-08T18:45:16.248384", "MEAN_MOTION": 1.00271222, "ECCENTRICITY": 0.0004785, "INCLINATION": 0.0638, "RA_OF_ASC_NODE": 340.3118, "ARG_OF_PERICENTER": 247.7629, "MEAN_ANOMALY": 134.132, "EPHEMERIS_TYPE": 0, "CLASSIFICATION_TYPE": "U", "NORAD_CAT_ID": 39773, "ELEMENT_SET_NO": 999, "REV_AT_EPOCH": 4215, "BSTAR": 0, "MEAN_MOTION_DOT": 2.2e-07, "MEAN_MOTION_DDOT": 0}, "tle": {"line1": "1 39773U 14030A   25342.78143806  .00000022  00000+0  00000+0 0  9992", "line2": "2 39773   0.0638 340.3118 0004785 247.7629 134.1320  1.00271222 42152"}}, "geometry": {"type": "Point", "coordinates": [167.1216874355842, -0.00957108238690896]}}, {"type": "Feature", "properties": {"norad_id": 40425, "name": "EUTELSAT 115 WEST B", "group": "eutelsat", "lat": -0.012460221666049908, "lon": 49.15003687207039, "alt_km": 35788.47476270459, "timestamp": "2025-12-09T05:43:20.399396+00:00", "meta": {"OBJECT_NAME": "EUTELSAT 115 WEST B", "OBJECT_ID": "2015-010B", "EPOCH": "2025-12-08T16:28:50.714112", "MEAN_MOTION": 1.0026292, "ECCENTRICITY": 4.51e-05, "INCLINATION": 0.0073, "RA_OF_ASC_NODE": 153.6878, "ARG_OF_PERICENTER": 343.34, "MEAN_ANOMALY": 72.981, "EPHEMERIS_TYPE": 0, "CLASSIFICATION_TYPE": "U", "NORAD_CAT_ID": 40425, "ELEMENT_SET_NO": 999, "REV_AT_EPOCH": 3948, "BSTAR": 0, "MEAN_MOTION_DOT": -2.2e-07, "MEAN_MOTION_DDOT": 0}, "tle": {"line1": "1 40425U 15010B   25342.68669808 -.00000022  00000+0  00000+0 0  9992", "line2": "2 40425   0.0073 153.6878 0000451 343.3400  72.9810  1.00262920 39485"}}, "geometry": {"type": "Point", "coordinates": [49.15003687207039, -0.012460221666049908]}}, {"type": "Feature", "properties": {"norad_id": 40875, "name": "EUTELSAT 8 WEST B", "group": "eutelsat", "lat": 0.028684116358845838, "lon": 156.03163994044863, "alt_km": 35790.11933122677, "timestamp": "2025-12-09T05:43:20.399407+00:00", "meta": {"OBJECT_NAME": "EUTELSAT 8 WEST B", "OBJECT_ID": "2015-039B", "EPOCH": "2025-12-08T18:42:09.047232", "MEAN_MOTION": 1.00271451, "ECCENTRICITY": 0.0004145, "INCLINATION": 0.0646, "RA_OF_ASC_NODE": 359.1923, "ARG_OF_PERICENTER": 259.8544, "MEAN_ANOMALY": 91.2858, "EPHEMERIS_TYPE": 0, "CLASSIFICATION_TYPE": "U", "NORAD_CAT_ID": 40875, "ELEMENT_SET_NO": 999, "REV_AT_EPOCH": 3774, "BSTAR": 0, "MEAN_MOTION_DOT": -6.3e-07, "MEAN_MOTION_DDOT": 0}, "tle": {"line1": "1 40875U 15039B   25342.77927138 -.00000063  00000+0  00000+0 0  9990", "line2": "2 40875   0.0646 359.1923 0004145 259.8544  91.2858  1.00271451 37740"}}, "geometry": {"type": "Point", "coordinates": [156.03163994044863, 0.028684116358845838]}}, {"type": "Feature", "properties": {"norad_id": 41310, "name": "EUTELSAT 9B", "group": "eutelsat", "lat": 0.026105241692718637, "lon": 173.01893335939974, "alt_km": 35786.56498848773, "timestamp": "2025-12-09T05:43:20.399427+00:00", "meta": {"OBJECT_NAME": "EUTELSAT 9B", "OBJECT_ID": "2016-005A", "EPOCH": "2025-12-08T18:47:01.080096", "MEAN_MOTION": 1.0027199, "ECCENTRICITY": 0.0004895, "INCLINATION": 0.035, "RA_OF_ASC_NODE": 51.0952, "ARG_OF_PERICENTER": 213.5895, "MEAN_ANOMALY": 103.8639, "EPHEMERIS_TYPE": 0, "CLASSIFICATION_TYPE": "U", "NORAD_CAT_ID": 41310, "ELEMENT_SET_NO": 999, "REV_AT_EPOCH": 3620, "BSTAR": 0, "MEAN_MOTION_DOT": 6.4e-07, "MEAN_MOTION_DDOT": 0}, "tle": {"line1": "1 41310U 16005A   25342.78265139  .00000064  00000+0  00000+0 0  9996", "line2": "2 41310   0.0350  51.0952 0004895 213.5895 103.8639  1.00271990 36200"}}, "geometry": {"type": "Point", "coordinates": [173.01893335939974, 0.026105241692718637]}}, {"type": "Feature", "properties": {"norad_id": 41382, "name": "EUTELSAT 65 WEST A", "group": "eutelsat", "lat": 0.06842405167284397, "lon": 98.8428753509989, "alt_km": 35796.771789738115, "timestamp": "2025-12-09T05:43:20.399455+00:00", "meta": {"OBJECT_NAME": "EUTELSAT 65 WEST A", "OBJECT_ID": "2016-014A", "EPOCH": "2025-12-08T12:41:22.901856", "MEAN_MOTION": 1.00271818, "ECCENTRICITY": 0.00026162, "INCLINATION": 0.0497, "RA_OF_ASC_NODE": 1.9264, "ARG_OF_PERICENTER": 260.5786, "MEAN_ANOMALY": 300.161, "EPHEMERIS_TYPE": 0, "CLASSIFICATION_TYPE": "U", "NORAD_CAT_ID": 41382, "ELEMENT_SET_NO": 999, "REV_AT_EPOCH": 3562, "BSTAR": 0, "MEAN_MOTION_DOT": -2.74e-06, "MEAN_MOTION_DDOT": 0}, "tle": {"line1": "1 41382U 16014A   25342.52873729 -.00000274  00000+0  00000+0 0  9991", "line2": "2 41382   0.0497   1.9264 0002616 260.5786 300.1610  1.00271818 35626"}}, "geometry": {"type": "Point", "coordinates": [98.8428753509989, 0.06842405167284397]}}, {"type": "Feature", "properties": {"norad_id": 41589, "name": "EUTELSAT 117 WEST B", "group": "eutelsat", "lat": -0.011990462688356573, "lon": 47.05747206606643, "alt_km": 35785.86253979267, "timestamp": "2025-12-09T05:43:20.399473+00:00", "meta": {"OBJECT_NAME": "EUTELSAT 117 WEST B", "OBJECT_ID": "2016-038B", "EPOCH": "2025-12-08T16:28:20.761824", "MEAN_MOTION": 1.00268965, "ECCENTRICITY": 4.33e-05, "INCLINATION": 0.0072, "RA_OF_ASC_NODE": 147.2989, "ARG_OF_PERICENTER": 317.1838, "MEAN_ANOMALY": 103.2954, "EPHEMERIS_TYPE": 0, "CLASSIFICATION_TYPE": "U", "NORAD_CAT_ID": 41589, "ELEMENT_SET_NO": 999, "REV_AT_EPOCH": 3475, "BSTAR": 0, "MEAN_MOTION_DOT": -9e-08, "MEAN_MOTION_DDOT": 0}, "tle": {"line1": "1 41589U 16038B   25342.68635141 -.00000009  00000+0  00000+0 0  9993", "line2": "2 41589   0.0072 147.2989 0000433 317.1838 103.2954  1.00268965 34759"}}, "geometry": {"type": "Point", "coordinates": [47.05747206606643, -0.011990462688356573]}}]}